ONEWEB-0599             
1 55155U 23004R   26137.11888567  .00000037  00000+0  61724-4 0  9996
2 55155  87.9159  12.0421 0001813  74.7597 285.3735 13.17650836163399
ONEWEB-0614             
1 55156U 23004S   26137.17867073 -.00000473  00000+0 -13714-2 0  9992
2 55156  87.8914  27.2462 0001967  86.5817 273.5536 13.11415388161770
ONEWEB-0616             
1 55157U 23004T   26137.16108079  .00000053  00000+0  10345-3 0  9996
2 55157  87.9163  12.0363 0002220  58.5379 301.5969 13.17648398163617
ONEWEB-0617             
1 55158U 23004U   26137.16680663 -.00000133  00000+0 -41226-3 0  9994
2 55158  87.8916  27.2381 0001939  94.1329 266.0021 13.11413887161796
ONEWEB-0618             
1 55159U 23004V   26137.17205536  .00003697  00000+0  20787-3 0  9993
2 55159  86.9112 190.2193 0014653  57.4323 302.8329 15.12877937177576
ONEWEB-0619             
1 55160U 23004W   26137.11720529  .00000079  00000+0  17116-3 0  9996
2 55160  87.9172  12.0234 0002277  84.1401 275.9990 13.17648789163501
ONEWEB-0620             
1 55161U 23004X   26137.16172704  .00000041  00000+0  80743-4 0  9994
2 55161  87.8911  27.2493 0001568  84.1950 275.9357 13.11414305161760
ONEWEB-0621             
1 55162U 23004Y   26137.11254154 -.00000448  00000+0 -13003-2 0  9996
2 55162  87.8925  27.2448 0002013  86.3447 273.7911 13.11416578161730
ONEWEB-0622             
1 55163U 23004Z   26137.11762850 -.00000252  00000+0 -74632-3 0  9993
2 55163  87.8927  27.2460 0001876 103.8065 256.3271 13.11416566161726
ONEWEB-0623             
1 55164U 23004AA  26137.11213199  .00000096  00000+0  21523-3 0  9996
2 55164  87.9159  12.0584 0002374  98.2379 261.9022 13.17650442163494
ONEWEB-0624             
1 55165U 23004AB  26137.02539389 -.00000342  00000+0 -97825-3 0  9993
2 55165  87.8962 356.7874 0001937  88.8924 271.2427 13.12927596163980
ONEWEB-0625             
1 55166U 23004AC  26137.17795573  .00000038  00000+0  63709-4 0  9994
2 55166  87.9160  12.0401 0001922  79.0413 281.0935 13.17648702163492
ONEWEB-0626             
1 55167U 23004AD  26137.16781632  .00000050  00000+0  95372-4 0  9990
2 55167  87.9160  12.0418 0001379  82.4173 277.7115 13.17650043163491
ONEWEB-0627             
1 55168U 23004AE  26137.15600941  .00000046  00000+0  85559-4 0  9994
2 55168  87.9158  12.0444 0002217  94.8407 265.2978 13.17650284163493
ONEWEB-0628             
1 55169U 23004AF  26137.14780191 -.00000808  00000+0 -22827-2 0  9995
2 55169  87.8966 356.8249 0002293  96.6998 263.4392 13.12432697163964
ONEWEB-0629             
1 55170U 23004AG  26137.13154947  .00000008  00000+0 -11677-4 0  9994
2 55170  87.9160  12.0458 0002166  82.7022 277.4356 13.17649083163496
