[{"OBJECT_NAME":"ONEWEB-0599","OBJECT_ID":"2023-004R","EPOCH":"2026-05-17T02:51:11.721888","MEAN_MOTION":13.17650836,"ECCENTRICITY":0.0001813,"INCLINATION":87.9159,"RA_OF_ASC_NODE":12.0421,"ARG_OF_PERICENTER":74.7597,"MEAN_ANOMALY":285.3735,"EPHEMERIS_TYPE":0,"CLASSIFICATION_TYPE":"U","NORAD_CAT_ID":55155,"ELEMENT_SET_NO":999,"REV_AT_EPOCH":16339,"BSTAR":6.172400000000001e-05,"MEAN_MOTION_DOT":3.7e-07,"MEAN_MOTION_DDOT":0.0},{"OBJECT_NAME":"ONEWEB-0614","OBJECT_ID":"2023-004S","EPOCH":"2026-05-17T04:17:17.151072","MEAN_MOTION":13.11415388,"ECCENTRICITY":0.0001967,"INCLINATION":87.8914,"RA_OF_ASC_NODE":27.2462,"ARG_OF_PERICENTER":86.5817,"MEAN_ANOMALY":273.5536,"EPHEMERIS_TYPE":0,"CLASSIFICATION_TYPE":"U","NORAD_CAT_ID":55156,"ELEMENT_SET_NO":999,"REV_AT_EPOCH":16177,"BSTAR":-0.0013714,"MEAN_MOTION_DOT":-4.73e-06,"MEAN_MOTION_DDOT":0.0},{"OBJECT_NAME":"ONEWEB-0616","OBJECT_ID":"2023-004T","EPOCH":"2026-05-17T03:51:57.380256","MEAN_MOTION":13.17648398,"ECCENTRICITY":0.000222,"INCLINATION":87.9163,"RA_OF_ASC_NODE":12.0363,"ARG_OF_PERICENTER":58.5379,"MEAN_ANOMALY":301.5969,"EPHEMERIS_TYPE":0,"CLASSIFICATION_TYPE":"U","NORAD_CAT_ID":55157,"ELEMENT_SET_NO":999,"REV_AT_EPOCH":16361,"BSTAR":0.00010345000000000001,"MEAN_MOTION_DOT":5.3e-07,"MEAN_MOTION_DDOT":0.0},{"OBJECT_NAME":"ONEWEB-0617","OBJECT_ID":"2023-004U","EPOCH":"2026-05-17T04:00:12.092832","MEAN_MOTION":13.11413887,"ECCENTRICITY":0.0001939,"INCLINATION":87.8916,"RA_OF_ASC_NODE":27.2381,"ARG_OF_PERICENTER":94.1329,"MEAN_ANOMALY":266.0021,"EPHEMERIS_TYPE":0,"CLASSIFICATION_TYPE":"U","NORAD_CAT_ID":55158,"ELEMENT_SET_NO":999,"REV_AT_EPOCH":16179,"BSTAR":-0.00041226,"MEAN_MOTION_DOT":-1.33e-06,"MEAN_MOTION_DDOT":0.0},{"OBJECT_NAME":"ONEWEB-0618","OBJECT_ID":"2023-004V","EPOCH":"2026-05-17T04:07:45.583104","MEAN_MOTION":15.12877937,"ECCENTRICITY":0.0014653,"INCLINATION":86.9112,"RA_OF_ASC_NODE":190.2193,"ARG_OF_PERICENTER":57.4323,"MEAN_ANOMALY":302.8329,"EPHEMERIS_TYPE":0,"CLASSIFICATION_TYPE":"U","NORAD_CAT_ID":55159,"ELEMENT_SET_NO":999,"REV_AT_EPOCH":17757,"BSTAR":0.00020787,"MEAN_MOTION_DOT":3.697e-05,"MEAN_MOTION_DDOT":0.0},{"OBJECT_NAME":"ONEWEB-0619","OBJECT_ID":"2023-004W","EPOCH":"2026-05-17T02:48:46.537056","MEAN_MOTION":13.17648789,"ECCENTRICITY":0.0002277,"INCLINATION":87.9172,"RA_OF_ASC_NODE":12.0234,"ARG_OF_PERICENTER":84.1401,"MEAN_ANOMALY":275.999,"EPHEMERIS_TYPE":0,"CLASSIFICATION_TYPE":"U","NORAD_CAT_ID":55160,"ELEMENT_SET_NO":999,"REV_AT_EPOCH":16350,"BSTAR":0.00017116,"MEAN_MOTION_DOT":7.9e-07,"MEAN_MOTION_DDOT":0.0},{"OBJECT_NAME":"ONEWEB-0620","OBJECT_ID":"2023-004X","EPOCH":"2026-05-17T03:52:53.216256","MEAN_MOTION":13.11414305,"ECCENTRICITY":0.0001568,"INCLINATION":87.8911,"RA_OF_ASC_NODE":27.2493,"ARG_OF_PERICENTER":84.195,"MEAN_ANOMALY":275.9357,"EPHEMERIS_TYPE":0,"CLASSIFICATION_TYPE":"U","NORAD_CAT_ID":55161,"ELEMENT_SET_NO":999,"REV_AT_EPOCH":16176,"BSTAR":8.0743e-05,"MEAN_MOTION_DOT":4.1e-07,"MEAN_MOTION_DDOT":0.0},{"OBJECT_NAME":"ONEWEB-0621","OBJECT_ID":"2023-004Y","EPOCH":"2026-05-17T02:42:03.589056","MEAN_MOTION":13.11416578,"ECCENTRICITY":0.0002013,"INCLINATION":87.8925,"RA_OF_ASC_NODE":27.2448,"ARG_OF_PERICENTER":86.3447,"MEAN_ANOMALY":273.7911,"EPHEMERIS_TYPE":0,"CLASSIFICATION_TYPE":"U","NORAD_CAT_ID":55162,"ELEMENT_SET_NO":999,"REV_AT_EPOCH":16173,"BSTAR":-0.0013003000000000001,"MEAN_MOTION_DOT":-4.48e-06,"MEAN_MOTION_DDOT":0.0},{"OBJECT_NAME":"ONEWEB-0622","OBJECT_ID":"2023-004Z","EPOCH":"2026-05-17T02:49:23.102400","MEAN_MOTION":13.11416566,"ECCENTRICITY":0.0001876,"INCLINATION":87.8927,"RA_OF_ASC_NODE":27.246,"ARG_OF_PERICENTER":103.8065,"MEAN_ANOMALY":256.3271,"EPHEMERIS_TYPE":0,"CLASSIFICATION_TYPE":"U","NORAD_CAT_ID":55163,"ELEMENT_SET_NO":999,"REV_AT_EPOCH":16172,"BSTAR":-0.00074632,"MEAN_MOTION_DOT":-2.52e-06,"MEAN_MOTION_DDOT":0.0},{"OBJECT_NAME":"ONEWEB-0623","OBJECT_ID":"2023-004AA","EPOCH":"2026-05-17T02:41:28.203936","MEAN_MOTION":13.17650442,"ECCENTRICITY":0.0002374,"INCLINATION":87.9159,"RA_OF_ASC_NODE":12.0584,"ARG_OF_PERICENTER":98.2379,"MEAN_ANOMALY":261.9022,"EPHEMERIS_TYPE":0,"CLASSIFICATION_TYPE":"U","NORAD_CAT_ID":55164,"ELEMENT_SET_NO":999,"REV_AT_EPOCH":16349,"BSTAR":0.00021523,"MEAN_MOTION_DOT":9.6e-07,"MEAN_MOTION_DDOT":0.0},{"OBJECT_NAME":"ONEWEB-0624","OBJECT_ID":"2023-004AB","EPOCH":"2026-05-17T00:36:34.032096","MEAN_MOTION":13.12927596,"ECCENTRICITY":0.0001937,"INCLINATION":87.8962,"RA_OF_ASC_NODE":356.7874,"ARG_OF_PERICENTER":88.8924,"MEAN_ANOMALY":271.2427,"EPHEMERIS_TYPE":0,"CLASSIFICATION_TYPE":"U","NORAD_CAT_ID":55165,"ELEMENT_SET_NO":999,"REV_AT_EPOCH":16398,"BSTAR":-0.00097825,"MEAN_MOTION_DOT":-3.42e-06,"MEAN_MOTION_DDOT":0.0},{"OBJECT_NAME":"ONEWEB-0625","OBJECT_ID":"2023-004AC","EPOCH":"2026-05-17T04:16:15.375072","MEAN_MOTION":13.17648702,"ECCENTRICITY":0.0001922,"INCLINATION":87.916,"RA_OF_ASC_NODE":12.0401,"ARG_OF_PERICENTER":79.0413,"MEAN_ANOMALY":281.0935,"EPHEMERIS_TYPE":0,"CLASSIFICATION_TYPE":"U","NORAD_CAT_ID":55166,"ELEMENT_SET_NO":999,"REV_AT_EPOCH":16349,"BSTAR":6.370900000000001e-05,"MEAN_MOTION_DOT":3.8e-07,"MEAN_MOTION_DDOT":0.0},{"OBJECT_NAME":"ONEWEB-0626","OBJECT_ID":"2023-004AD","EPOCH":"2026-05-17T04:01:39.330048","MEAN_MOTION":13.17650043,"ECCENTRICITY":0.0001379,"INCLINATION":87.916,"RA_OF_ASC_NODE":12.0418,"ARG_OF_PERICENTER":82.4173,"MEAN_ANOMALY":277.7115,"EPHEMERIS_TYPE":0,"CLASSIFICATION_TYPE":"U","NORAD_CAT_ID":55167,"ELEMENT_SET_NO":999,"REV_AT_EPOCH":16349,"BSTAR":9.537200000000001e-05,"MEAN_MOTION_DOT":5e-07,"MEAN_MOTION_DDOT":0.0},{"OBJECT_NAME":"ONEWEB-0627","OBJECT_ID":"2023-004AE","EPOCH":"2026-05-17T03:44:39.213024","MEAN_MOTION":13.17650284,"ECCENTRICITY":0.0002217,"INCLINATION":87.9158,"RA_OF_ASC_NODE":12.0444,"ARG_OF_PERICENTER":94.8407,"MEAN_ANOMALY":265.2978,"EPHEMERIS_TYPE":0,"CLASSIFICATION_TYPE":"U","NORAD_CAT_ID":55168,"ELEMENT_SET_NO":999,"REV_AT_EPOCH":16349,"BSTAR":8.5559e-05,"MEAN_MOTION_DOT":4.6e-07,"MEAN_MOTION_DDOT":0.0},{"OBJECT_NAME":"ONEWEB-0628","OBJECT_ID":"2023-004AF","EPOCH":"2026-05-17T03:32:50.085024","MEAN_MOTION":13.12432697,"ECCENTRICITY":0.0002293,"INCLINATION":87.8966,"RA_OF_ASC_NODE":356.8249,"ARG_OF_PERICENTER":96.6998,"MEAN_ANOMALY":263.4392,"EPHEMERIS_TYPE":0,"CLASSIFICATION_TYPE":"U","NORAD_CAT_ID":55169,"ELEMENT_SET_NO":999,"REV_AT_EPOCH":16396,"BSTAR":-0.0022827,"MEAN_MOTION_DOT":-8.08e-06,"MEAN_MOTION_DDOT":0.0},{"OBJECT_NAME":"ONEWEB-0629","OBJECT_ID":"2023-004AG","EPOCH":"2026-05-17T03:09:25.874208","MEAN_MOTION":13.17649083,"ECCENTRICITY":0.0002166,"INCLINATION":87.916,"RA_OF_ASC_NODE":12.0458,"ARG_OF_PERICENTER":82.7022,"MEAN_ANOMALY":277.4356,"EPHEMERIS_TYPE":0,"CLASSIFICATION_TYPE":"U","NORAD_CAT_ID":55170,"ELEMENT_SET_NO":999,"REV_AT_EPOCH":16349,"BSTAR":-1.1677e-05,"MEAN_MOTION_DOT":8e-08,"MEAN_MOTION_DDOT":0.0}]